[{"OBJECT_NAME":"STARLINK-32161","OBJECT_ID":"2024-150L","EPOCH":"2026-03-09T21:20:46.272480","MEAN_MOTION":15.30186437,"ECCENTRICITY":8.838e-5,"INCLINATION":53.1597,"RA_OF_ASC_NODE":305.9754,"ARG_OF_PERICENTER":91.833,"MEAN_ANOMALY":268.2772,"EPHEMERIS_TYPE":0,"CLASSIFICATION_TYPE":"U","NORAD_CAT_ID":60593,"ELEMENT_SET_NO":999,"REV_AT_EPOCH":8799,"BSTAR":5.8366414e-5,"MEAN_MOTION_DOT":1.369e-5,"MEAN_MOTION_DDOT":0},{"OBJECT_NAME":"TEVEL2-4","OBJECT_ID":"2025-052D","EPOCH":"2026-03-09T16:39:37.129536","MEAN_MOTION":15.30925813,"ECCENTRICITY":0.0004733,"INCLINATION":97.4009,"RA_OF_ASC_NODE":325.1237,"ARG_OF_PERICENTER":95.3468,"MEAN_ANOMALY":264.8313,"EPHEMERIS_TYPE":0,"CLASSIFICATION_TYPE":"U","NORAD_CAT_ID":63213,"ELEMENT_SET_NO":999,"REV_AT_EPOCH":5487,"BSTAR":0.00070362503,"MEAN_MOTION_DOT":0.0002099,"MEAN_MOTION_DDOT":0}]
