STARLINK-32161          
1 60593U 24150L   26068.88942445  .00001369  00000+0  58366-4 0  9991
2 60593  53.1597 305.9754 0000884  91.8330 268.2772 15.30186437 87997
TEVEL2-4                
1 63213U 25052D   26068.69417974  .00020990  00000+0  70363-3 0  9999
2 63213  97.4009 325.1237 0004733  95.3468 264.8313 15.30925813 54879
